[{"OBJECT_NAME":"XINGCHI-1 02B","OBJECT_ID":"2023-187C","EPOCH":"2026-03-09T22:36:06.861312","MEAN_MOTION":14.854851,"ECCENTRICITY":0.00120604,"INCLINATION":97.9317,"RA_OF_ASC_NODE":153.3872,"ARG_OF_PERICENTER":104.6634,"MEAN_ANOMALY":255.5919,"EPHEMERIS_TYPE":0,"CLASSIFICATION_TYPE":"U","NORAD_CAT_ID":58498,"ELEMENT_SET_NO":999,"REV_AT_EPOCH":12244,"BSTAR":0.00027337967,"MEAN_MOTION_DOT":2.307e-5,"MEAN_MOTION_DDOT":0},{"OBJECT_NAME":"ATLAS 5 CENTAUR R\/B","OBJECT_ID":"2015-058Q","EPOCH":"2026-03-09T09:58:43.980384","MEAN_MOTION":15.0421101,"ECCENTRICITY":0.01083886,"INCLINATION":64.7668,"RA_OF_ASC_NODE":96.662,"ARG_OF_PERICENTER":94.2862,"MEAN_ANOMALY":267.0651,"EPHEMERIS_TYPE":0,"CLASSIFICATION_TYPE":"U","NORAD_CAT_ID":40978,"ELEMENT_SET_NO":999,"REV_AT_EPOCH":10021,"BSTAR":0.00034608892,"MEAN_MOTION_DOT":5.305e-5,"MEAN_MOTION_DDOT":0}]
